NORAD_CAT_ID,OBJECT_NAME,OBJECT_TYPE,EPOCH,MEAN_MOTION,ECCENTRICITY,INCLINATION,RA_OF_ASC_NODE,ARG_OF_PERICENTER,MEAN_ANOMALY,BSTAR,MEAN_MOTION_DOT,MEAN_MOTION_DDOT,TLE_LINE0,TLE_LINE1,TLE_LINE2,SEMIMAJOR_AXIS,PERIOD,APOGEE,PERIGEE,DECAYED
50821.0,STARLINK-3346,PAYLOAD,2022-01-22 06:00:00,15.76403526,0.0001244,53.2174,123.0765,57.3733,70.9871,-0.0055851999999999,-0.00819419,0.0,0 STARLINK-3346,1 50821U 22001U   22022.25001157 -.00819419  00000-0 -55852-2 0  9991,2 50821  53.2174 123.0765 0001244  57.3733  70.9871 15.76403526  3704,6718.776999999999,91.347,341.478,339.806,0.0
50821.0,STARLINK-3346,PAYLOAD,2022-01-22 14:00:01,15.75816991,0.0001486,53.2175,121.422,48.7376,172.0403,-0.0057303999999999,-0.00819214,0.0,0 STARLINK-3346,1 50821U 22001U   22022.58334491 -.00819214  00000-0 -57304-2 0  9994,2 50821  53.2175 121.4220 0001486  48.7376 172.0403 15.75816991  3021,6720.444,91.381,343.30800000000005,341.311,0.0
50821.0,STARLINK-3346,PAYLOAD,2022-01-22 22:00:00,15.75232398,0.0001043,53.2175,119.7658,81.2181,231.2738,-0.0058949,-0.00820953,0.0,0 STARLINK-3346,1 50821U 22001U   22022.91667824 -.00820953  00000-0 -58949-2 0  9998,2 50821  53.2175 119.7658 0001043  81.2181 231.2738 15.75232398  3078,6722.107,91.415,344.673,343.271,0.0
50821.0,STARLINK-3346,PAYLOAD,2022-01-23 06:00:00,15.7464503,0.0001119,53.2177,118.111,57.5693,345.9337,-0.0060228,-0.00817754,0.0,0 STARLINK-3346,1 50821U 22001U   22023.25001157 -.00817754  00000-0 -60228-2 0  9995,2 50821  53.2177 118.1110 0001119  57.5693 345.9337 15.74645030  3869,6723.778,91.449,346.396,344.891,0.0
50821.0,STARLINK-3346,PAYLOAD,2022-01-23 14:00:01,15.74059964,0.0001496,53.2174,116.4608,43.5116,90.2959,-0.0061962,-0.00819978,0.0,0 STARLINK-3346,1 50821U 22001U   22023.58334491 -.00819978  00000-0 -61962-2 0  9997,2 50821  53.2174 116.4608 0001496  43.5116  90.2959 15.74059964  3182,6725.444,91.483,348.316,346.30300000000005,0.0
50821.0,STARLINK-3346,PAYLOAD,2022-01-23 22:00:00,15.73304706,0.0001243,53.2173,114.8087,66.3065,157.1271,-0.00113,-0.00156984,0.0,0 STARLINK-3346,1 50821U 22001U   22023.91667824 -.00156984  00000-0 -11300-2 0  9995,2 50821  53.2173 114.8087 0001243  66.3065 157.1271 15.73304706  3962,6727.597,91.527,350.298,348.625,0.0
50821.0,STARLINK-3346,PAYLOAD,2022-01-24 06:00:02,15.73205141,0.0001328,53.2175,113.1579,56.1001,256.3835,-1.7738e-06,-8.69e-06,0.0,0 STARLINK-3346,1 50821U 22001U   22024.25002315 -.00000869  00000-0 -17738-5 0  9995,2 50821  53.2175 113.1579 0001328  56.1001 256.3835 15.73205141  4011,6727.880999999999,91.533,350.639,348.852,0.0
50821.0,STARLINK-3346,PAYLOAD,2022-01-24 14:00:01,15.73175132,0.0001204,53.2152,111.5094,32.7517,8.59,0.00029715,0.00041243,0.0,0 STARLINK-3346,1 50821U 22001U   22024.58334491  .00041243  00000-0  29715-3 0  9999,2 50821  53.2152 111.5094 0001204  32.7517   8.5900 15.73175132  3357,6727.965999999999,91.535,350.641,349.021,0.0
50821.0,STARLINK-3346,PAYLOAD,2022-01-24 22:00:00,15.73215811,0.0001139,53.2151,109.8586,31.2305,99.0157,-6.384e-05,-9.575e-05,0.0,0 STARLINK-3346,1 50821U 22001U   22024.91667824 -.00009575  00000-0 -63840-4 0  9997,2 50821  53.2151 109.8586 0001139  31.2305  99.0157 15.73215811  3402,6727.85,91.532,350.481,348.949,0.0
50821.0,STARLINK-3346,PAYLOAD,2022-01-25 00:00:00,15.73198449,0.0001093,53.2152,109.4458,32.9946,209.4923,0.00023918,0.00033077,0.0,0 STARLINK-3346,1 50821U 22001U   22025.00001157  .00033077  00000-0  23918-3 0  9992,2 50821  53.2152 109.4458 0001093  32.9946 209.4923 15.73198449  4131,6727.9,91.533,350.5,349.029,0.0
50821.0,STARLINK-3346,PAYLOAD,2022-01-26 05:27:59,15.73257886,0.000105,53.2156,103.3682,42.149,317.9611,0.00020953,0.0002896,0.0,0 STARLINK-3346,1 50821U 22001U   22026.22777764  .00028960  00000-0  20953-3 0  9992,2 50821  53.2156 103.3682 0001050  42.1490 317.9611 15.73257886  4328,6727.73,91.53,350.302,348.889,0.0
50821.0,STARLINK-3346,PAYLOAD,2022-01-26 11:33:54,15.73254048,0.0001503,53.215,102.1118,37.8073,322.3052,0.00014766,0.000202,0.0,0 STARLINK-3346,1 50821U 22001U   22026.48188402  .00020200  00000-0  14766-3 0  9999,2 50821  53.2150 102.1118 0001503  37.8073 322.3052 15.73254048  4364,6727.741,91.53,350.617,348.595,0.0
50821.0,STARLINK-3346,PAYLOAD,2022-01-26 16:07:53,15.75016413,0.0007727,53.2151,101.1665,321.8553,38.192,0.0095669,0.01636771,0.0,0 STARLINK-3346,1 50821U 22001U   22026.67214664  .01636771  00000-0  95669-2 0  9997,2 50821  53.2151 101.1665 0007727 321.8553  38.1920 15.75016413  4397,6722.721,91.428,349.781,339.392,0.0
50821.0,STARLINK-3346,PAYLOAD,2022-01-27 16:32:01,15.73201004,0.0001917,53.2156,96.1377,39.5419,320.5741,-3.3176e-05,-5.275e-05,0.0,0 STARLINK-3346,1 50821U 22001U   22027.68890236 -.00005275  00000-0 -33176-4 0  9991,2 50821  53.2156  96.1377 0001917  39.5419 320.5741 15.73201004  4551,6727.892,91.533,351.047,348.468,0.0
50821.0,STARLINK-3346,PAYLOAD,2022-01-28 10:49:47,15.73210409,0.0001579,53.2152,92.3662,40.1947,319.9189,0.00024598,0.00034057,0.0,0 STARLINK-3346,1 50821U 22001U   22028.45124665  .00034057  00000-0  24598-3 0  9998,2 50821  53.2152  92.3662 0001579  40.1947 319.9189 15.73210409  3433,6727.865,91.533,350.793,348.668,0.0
50821.0,STARLINK-3346,PAYLOAD,2022-01-28 13:52:45,15.73216991,0.000156,53.2153,91.7375,40.0413,320.0722,0.00024672,0.00034172,0.0,0 STARLINK-3346,1 50821U 22001U   22028.57830188  .00034172  00000-0  24672-3 0  9996,2 50821  53.2153  91.7375 0001560  40.0413 320.0722 15.73216991  4692,6727.847,91.532,350.761,348.662,0.0
50821.0,STARLINK-3346,PAYLOAD,2022-01-29 02:04:35,15.73198965,0.0002095,53.2154,89.2229,35.8684,324.2476,-0.00013352,-0.00019318,0.0,0 STARLINK-3346,1 50821U 22001U   22029.08652000 -.00019318  00000-0 -13352-3 0  9998,2 50821  53.2154  89.2229 0002095  35.8684 324.2476 15.73198965  4770,6727.898,91.533,351.173,348.35400000000016,0.0
50821.0,STARLINK-3346,PAYLOAD,2022-01-29 12:44:56,15.73244618,0.0001967,53.2153,87.0226,43.4373,316.6802,0.00027287,0.00037923,0.0,0 STARLINK-3346,1 50821U 22001U   22029.53120805  .00037923  00000-0  27287-3 0  9993,2 50821  53.2153  87.0226 0001967  43.4373 316.6802 15.73244618  4842,6727.768,91.531,350.956,348.31,0.0
50821.0,STARLINK-3346,PAYLOAD,2022-01-29 20:22:20,15.73235672,0.0001522,53.2153,85.4508,37.5499,322.5627,0.00015906,0.00021795,0.0,0 STARLINK-3346,1 50821U 22001U   22029.84884401  .00021795  00000-0  15906-3 0  9991,2 50821  53.2153  85.4508 0001522  37.5499 322.5627 15.73235672  3656,6727.793000000002,91.531,350.682,348.635,0.0
50821.0,STARLINK-3346,PAYLOAD,2022-01-30 03:59:43,15.73249535,0.0002251,53.215,83.8784,52.602,307.5205,0.00021812,0.00030168,0.0,0 STARLINK-3346,1 50821U 22001U   22030.16648072  .00030168  00000-0  21812-3 0  9997,2 50821  53.2150  83.8784 0002251  52.6020 307.5205 15.73249535  4940,6727.754,91.53,351.1330000000001,348.105,0.0
50821.0,STARLINK-3346,PAYLOAD,2022-01-30 10:05:38,15.73233372,0.0001778,53.2159,82.6215,43.8222,316.2939,0.00010872,0.00014686,0.0,0 STARLINK-3346,1 50821U 22001U   22030.42058883  .00014686  00000-0  10872-3 0  9992,2 50821  53.2159  82.6215 0001778  43.8222 316.2939 15.73233372  4981,6727.8,91.531,350.861,348.469,0.0
50821.0,STARLINK-3346,PAYLOAD,2022-01-30 13:08:36,15.73225511,0.0001842,53.2153,81.9922,37.3369,322.7778,8.669799999999999e-05,0.00011577,0.0,0 STARLINK-3346,1 50821U 22001U   22030.54764525  .00011577  00000-0  86698-4 0  9998,2 50821  53.2153  81.9922 0001842  37.3369 322.7778 15.73225511  3768,6727.821999999999,91.532,350.927,348.4480000000001,0.0
50821.0,STARLINK-3346,PAYLOAD,2022-01-30 20:46:00,15.73214935,0.0001789,53.2149,80.4202,36.453,323.6611,7.9938e-05,0.0001062,0.0,0 STARLINK-3346,1 50821U 22001U   22030.86528530  .00010620  00000-0  79938-4 0  9994,2 50821  53.2149  80.4202 0001789  36.4530 323.6611 15.73214935  3818,6727.853,91.532,350.921,348.514,0.0
50821.0,STARLINK-3346,PAYLOAD,2022-01-31 02:51:56,15.73213825,0.0002241,53.2149,79.1634,45.1999,314.9204,0.00010983,0.0001483,0.0,0 STARLINK-3346,1 50821U 22001U   22031.11939869  .00014830  00000-0  10983-3 0  9995,2 50821  53.2149  79.1634 0002241  45.1999 314.9204 15.73213825  5092,6727.856,91.532,351.228,348.213,0.0
50821.0,STARLINK-3346,PAYLOAD,2022-01-31 08:57:51,15.73221839,0.0001575,53.215,77.9059,37.0349,323.078,0.0002237,0.0003092,0.0,0 STARLINK-3346,1 50821U 22001U   22031.37350863  .00030920  00000-0  22370-3 0  9995,2 50821  53.2150  77.9059 0001575  37.0349 323.0780 15.73221839  3899,6727.833000000001,91.532,350.7580000000001,348.63800000000015,0.0
50821.0,STARLINK-3346,PAYLOAD,2022-02-01 10:53:01,15.73201854,0.0001921,53.2145,72.5615,32.2375,327.8762,0.00027891,0.00038708,0.0,0 STARLINK-3346,1 50821U 22001U   22032.45348409  .00038708  00000-0  27891-3 0  9993,2 50821  53.2145  72.5615 0001921  32.2375 327.8762 15.73201854  5308,6727.89,91.533,351.047,348.462,0.0
50821.0,STARLINK-3346,PAYLOAD,2022-02-02 11:16:42,15.73226762,0.0001915,53.2142,67.5303,29.1004,331.0123,0.00020019,0.000276,0.0,0 STARLINK-3346,1 50821U 22001U   22033.46993245  .00027600  00000-0  20019-3 0  9993,2 50821  53.2142  67.5303 0001915  29.1004 331.0123 15.73226762  5460,6727.819,91.532,350.972,348.395,0.0
50821.0,STARLINK-3346,PAYLOAD,2022-02-02 18:54:06,15.73218921,0.0001654,53.2145,65.9597,22.8881,337.2213,0.00012501,0.00016974,0.0,0 STARLINK-3346,1 50821U 22001U   22033.78757024  .00016974  00000-0  12501-3 0  9990,2 50821  53.2145  65.9597 0001654  22.8881 337.2213 15.73218921  5515,6727.840999999999,91.532,350.819,348.593,0.0
50821.0,STARLINK-3346,PAYLOAD,2022-02-03 13:11:51,15.732192800000002,0.0001686,53.2145,62.1856,24.3411,335.7689,4.128e-05,5.181e-05,0.0,0 STARLINK-3346,1 50821U 22001U   22034.54989959  .00005181  00000-0  41280-4 0  9994,2 50821  53.2145  62.1856 0001686  24.3411 335.7689 15.73219280  5646,6727.84,91.532,350.84,348.571,0.0
